NORAD_CAT_ID,OBJECT_NAME,OBJECT_TYPE,EPOCH,MEAN_MOTION,ECCENTRICITY,INCLINATION,RA_OF_ASC_NODE,ARG_OF_PERICENTER,MEAN_ANOMALY,BSTAR,MEAN_MOTION_DOT,MEAN_MOTION_DDOT,TLE_LINE0,TLE_LINE1,TLE_LINE2,SEMIMAJOR_AXIS,PERIOD,APOGEE,PERIGEE,DECAYED
55305.0,STARLINK-5316,PAYLOAD,2024-02-04 14:46:50,14.98336679,0.0003054,70.0008,151.147,274.1542,85.9267,-2.833e-05,-4.31e-06,0.0,0 STARLINK-5316,1 55305U 23010AN  24035.61585905 -.00000431  00000-0 -28330-4 0  9997,2 55305  70.0008 151.1470 0003054 274.1542  85.9267 14.98336679 58827,6950.172,96.107,574.16,569.915,0.0
55305.0,STARLINK-5316,PAYLOAD,2024-02-04 17:59:06,14.98338969,0.0002907,70.0013,150.8118,269.6894,90.3932,-2.5863e-05,-4.02e-06,0.0,0 STARLINK-5316,1 55305U 23010AN  24035.74937652 -.00000402  00000-0 -25863-4 0  9997,2 55305  70.0013 150.8118 0002907 269.6894  90.3932 14.98338969 58848,6950.165,96.106,574.051,570.01,0.0
55305.0,STARLINK-5316,PAYLOAD,2024-02-05 11:36:35,14.98325945,0.0002586,70.0017,148.96,267.0394,93.0469,4.7039e-05,4.68e-06,0.0,0 STARLINK-5316,1 55305U 23010AN  24036.48374180  .00000468  00000-0  47039-4 0  9999,2 55305  70.0017 148.9600 0002586 267.0394  93.0469 14.98325945 58638,6950.205,96.107,573.868,570.273,0.0
55305.0,STARLINK-5316,PAYLOAD,2024-02-05 14:48:51,14.98325008,0.0002605,70.0018,148.6238,266.2169,93.8692,3.6304e-05,3.4e-06,0.0,0 STARLINK-5316,1 55305U 23010AN  24036.61726282  .00000340  00000-0  36304-4 0  9990,2 55305  70.0018 148.6238 0002605 266.2169  93.8692 14.98325008 58979,6950.208,96.107,573.884,570.263,0.0
55305.0,STARLINK-5316,PAYLOAD,2024-02-05 16:24:59,14.98325426,0.0002591,70.0019,148.4555,266.9343,93.152,4.262e-05,4.16e-06,0.0,0 STARLINK-5316,1 55305U 23010AN  24036.68402254  .00000416  00000-0  42620-4 0  9999,2 55305  70.0019 148.4555 0002591 266.9343  93.1520 14.98325426 58983,6950.207,96.107,573.873,570.271,0.0
55305.0,STARLINK-5316,PAYLOAD,2024-02-06 11:38:36,14.98331625,0.0002683,70.0016,146.4361,261.6242,98.4613,-2.2885e-05,-3.66e-06,0.0,0 STARLINK-5316,1 55305U 23010AN  24037.48513959 -.00000366  00000-0 -22885-4 0  9990,2 55305  70.0016 146.4361 0002683 261.6242  98.4613 14.98331625 58782,6950.188,96.107,573.918,570.188,0.0
55305.0,STARLINK-5316,PAYLOAD,2024-02-06 13:14:44,14.98331466,0.0002682,70.0016,146.2678,261.3724,98.7131,-2.3647e-05,-3.75e-06,0.0,0 STARLINK-5316,1 55305U 23010AN  24037.55189962 -.00000375  00000-0 -23647-4 0  9998,2 55305  70.0016 146.2678 0002682 261.3724  98.7131 14.98331466 59111,6950.188,96.107,573.917,570.189,0.0
55305.0,STARLINK-5316,PAYLOAD,2024-02-06 14:50:52,14.9833229,0.0002667,70.0016,146.0994,261.3234,98.7623,-1.2997e-05,-2.48e-06,0.0,0 STARLINK-5316,1 55305U 23010AN  24037.61865869 -.00000248  00000-0 -12997-4 0  9997,2 55305  70.0016 146.0994 0002667 261.3234  98.7623 14.98332290 59122,6950.186,96.107,573.904,570.197,0.0
55305.0,STARLINK-5316,PAYLOAD,2024-02-07 11:40:38,14.98311348,0.0002592,70.0015,143.9115,251.0284,109.0595,-0.00014885,-1.868e-05,0.0,0 STARLINK-5316,1 55305U 23010AN  24038.48655957 -.00001868  00000-0 -14885-3 0  9994,2 55305  70.0015 143.9115 0002592 251.0284 109.0595 14.98311348 58933,6950.251,96.108,573.917,570.314,0.0
55305.0,STARLINK-5316,PAYLOAD,2024-02-07 14:52:54,14.98313168,0.0002954,70.0004,143.5735,264.845,95.2372,-0.00015846,-1.982e-05,0.0,0 STARLINK-5316,1 55305U 23010AN  24038.62008049 -.00001982  00000-0 -15846-3 0  9999,2 55305  70.0004 143.5735 0002954 264.8450  95.2372 14.98313168 59273,6950.245,96.108,574.163,570.057,0.0
55305.0,STARLINK-5316,PAYLOAD,2024-02-07 16:29:03,14.98311644,0.0002731,70.0011,143.4061,262.714,97.3709,-0.00015348,-1.923e-05,0.0,0 STARLINK-5316,1 55305U 23010AN  24038.68684223 -.00001923  00000-0 -15348-3 0  9991,2 55305  70.0011 143.4061 0002731 262.7140  97.3709 14.98311644 59283,6950.25,96.108,574.013,570.217,0.0
55305.0,STARLINK-5316,PAYLOAD,2024-02-08 00:29:42,14.9832482,0.0003091,70.0005,142.5635,265.3136,94.767,-6.0314e-05,-8.12e-06,0.0,0 STARLINK-5316,1 55305U 23010AN  24039.02063306 -.00000812  00000-0 -60314-4 0  9993,2 55305  70.0005 142.5635 0003091 265.3136  94.7670 14.98324820 59016,6950.209,96.107,574.222,569.926,0.0
55305.0,STARLINK-5316,PAYLOAD,2024-02-08 11:42:38,14.98330957,0.0003127,70.0006,141.3867,268.4777,91.6024,4.9544e-05,4.98e-06,0.0,0 STARLINK-5316,1 55305U 23010AN  24039.48794734  .00000498  00000-0  49544-4 0  9999,2 55305  70.0006 141.3867 0003127 268.4777  91.6024 14.98330957 59080,6950.19,96.107,574.228,569.882,0.0
55305.0,STARLINK-5316,PAYLOAD,2024-02-08 13:18:46,14.98331671,0.0003123,70.0006,141.2182,268.4296,91.6506,5.5777e-05,5.73e-06,0.0,0 STARLINK-5316,1 55305U 23010AN  24039.55470666  .00000573  00000-0  55777-4 0  9991,2 55305  70.0006 141.2182 0003123 268.4296  91.6506 14.98331671 59417,6950.188,96.107,574.223,569.882,0.0
55305.0,STARLINK-5316,PAYLOAD,2024-02-08 16:31:02,14.98340734,0.0003107,70.0004,140.8808,266.2493,93.8311,0.00014046,1.584e-05,0.0,0 STARLINK-5316,1 55305U 23010AN  24039.68821788  .00001584  00000-0  14046-3 0  9996,2 55305  70.0004 140.8808 0003107 266.2493  93.8311 14.98340734 59117,6950.16,96.106,574.184,569.865,0.0
55305.0,STARLINK-5316,PAYLOAD,2024-02-09 11:44:39,14.98325046,0.0002871,70.001,138.8624,259.3373,100.7462,0.00019998,2.294e-05,0.0,0 STARLINK-5316,1 55305U 23010AN  24040.48934535  .00002294  00000-0  19998-3 0  9991,2 55305  70.0010 138.8624 0002871 259.3373 100.7462 14.98325046 59231,6950.208,96.107,574.069,570.078,0.0
55305.0,STARLINK-5316,PAYLOAD,2024-02-09 13:20:47,14.98325416,0.0002835,70.0011,138.6942,258.17,101.9141,0.00020764,2.385e-05,0.0,0 STARLINK-5316,1 55305U 23010AN  24040.55610514  .00002385  00000-0  20764-3 0  9991,2 55305  70.0011 138.6942 0002835 258.1700 101.9141 14.98325416 59568,6950.207,96.107,574.042,570.102,0.0
55305.0,STARLINK-5316,PAYLOAD,2024-02-10 11:46:40,14.98336027,0.0002743,70.0016,136.3374,262.4924,97.5923,-2.9135e-05,-4.41e-06,0.0,0 STARLINK-5316,1 55305U 23010AN  24041.49074278 -.00000441  00000-0 -29135-4 0  9991,2 55305  70.0016 136.3374 0002743 262.4924  97.5923 14.98336027 59389,6950.174,96.107,573.946,570.133,0.0
55305.0,STARLINK-5316,PAYLOAD,2024-02-10 13:22:48,14.98336974,0.0002586,70.0016,136.1695,255.4549,104.6324,-5.3923e-05,-7.36e-06,0.0,0 STARLINK-5316,1 55305U 23010AN  24041.55750256 -.00000736  00000-0 -53923-4 0  9994,2 55305  70.0016 136.1695 0002586 255.4549 104.6324 14.98336974 59716,6950.171,96.107,573.834,570.239,0.0
55305.0,STARLINK-5316,PAYLOAD,2024-02-10 16:35:04,14.98337986,0.000255,70.0017,135.8329,254.3346,105.7532,-4.3021e-05,-6.06e-06,0.0,0 STARLINK-5316,1 55305U 23010AN  24041.69102087 -.00000606  00000-0 -43021-4 0  9996,2 55305  70.0017 135.8329 0002550 254.3346 105.7532 14.98337986 59730,6950.168,96.106,573.805,570.261,0.0
55305.0,STARLINK-5316,PAYLOAD,2024-02-11 11:48:40,14.98332346,0.000257,70.0016,133.8128,260.4366,99.6503,-1.8528e-05,-3.14e-06,0.0,0 STARLINK-5316,1 55305U 23010AN  24042.49214009 -.00000314  00000-0 -18528-4 0  9993,2 55305  70.0016 133.8128 0002570 260.4366  99.6503 14.98332346 59538,6950.186,96.107,573.837,570.264,0.0
55305.0,STARLINK-5316,PAYLOAD,2024-02-11 13:24:48,14.98334071,0.0002395,70.0016,133.6443,254.2595,105.83,6.0526e-06,-2.1e-07,0.0,0 STARLINK-5316,1 55305U 23010AN  24042.55889808 -.00000021  00000-0  60526-5 0  9995,2 55305  70.0016 133.6443 0002395 254.2595 105.8300 14.98334071 59864,6950.18,96.107,573.71,570.381,0.0
55305.0,STARLINK-5316,PAYLOAD,2024-02-11 16:37:04,14.98337415,0.0002491,70.0014,133.3071,255.5683,104.52,3.6903e-05,3.48e-06,0.0,0 STARLINK-5316,1 55305U 23010AN  24042.69241439  .00000348  00000-0  36903-4 0  9994,2 55305  70.0014 133.3071 0002491 255.5683 104.5200 14.98337415 59562,6950.17,96.107,573.766,570.304,0.0
55305.0,STARLINK-5316,PAYLOAD,2024-02-12 11:50:45,14.98288167,0.0002442,70.0016,131.2879,248.2314,111.8585,-0.00048244,-5.838e-05,0.0,0 STARLINK-5316,1 55305U 23010AN  24043.49357758 -.00005838  00000-0 -48244-3 0  9996,2 55305  70.0016 131.2879 0002442 248.2314 111.8585 14.98288167 59682,6950.322,96.11,573.885,570.49,0.0
55305.0,STARLINK-5316,PAYLOAD,2024-02-12 13:26:53,14.98285486,0.0002428,70.0016,131.1195,258.3123,101.7763,-0.00049952,-6.041e-05,0.0,0 STARLINK-5316,1 55305U 23010AN  24043.56034198 -.00006041  00000-0 -49952-3 0  9998,2 55305  70.0016 131.1195 0002428 258.3123 101.7763 14.98285486 60012,6950.331,96.11,573.883,570.508,0.0
55305.0,STARLINK-5316,PAYLOAD,2024-02-12 15:03:01,14.98285077,0.0002482,70.0015,130.9516,258.6778,101.4102,-0.00049744,-6.016e-05,0.0,0 STARLINK-5316,1 55305U 23010AN  24043.62710401 -.00006016  00000-0 -49744-3 0  9994,2 55305  70.0015 130.9516 0002482 258.6778 101.4102 14.98285077 60025,6950.332,96.11,573.922,570.472,0.0
55305.0,STARLINK-5316,PAYLOAD,2024-02-13 11:52:42,14.98338082,0.0002729,70.0009,128.7623,266.5991,93.4856,0.00011473,1.276e-05,0.0,0 STARLINK-5316,1 55305U 23010AN  24044.49494130  .00001276  00000-0  11473-3 0  9997,2 55305  70.0009 128.7623 0002729 266.5991  93.4856 14.98338082 59839,6950.168,96.106,573.93,570.136,0.0
55305.0,STARLINK-5316,PAYLOAD,2024-02-13 13:28:50,14.98338832,0.000265,70.0008,128.5937,266.4537,93.6319,0.00011983,1.337e-05,0.0,0 STARLINK-5316,1 55305U 23010AN  24044.56170055  .00001337  00000-0  11983-3 0  9996,2 55305  70.0008 128.5937 0002650 266.4537  93.6319 14.98338832 60169,6950.166,96.106,573.872,570.189,0.0
55305.0,STARLINK-5316,PAYLOAD,2024-02-13 15:04:58,14.98339992,0.0002631,70.001,128.4255,266.835,93.2508,0.00013496,1.518e-05,0.0,0 STARLINK-5316,1 55305U 23010AN  24044.62845925  .00001518  00000-0  13496-3 0  9990,2 55305  70.0010 128.4255 0002631 266.8350  93.2508 14.98339992 60175,6950.162,96.106,573.856,570.198,0.0
55305.0,STARLINK-5316,PAYLOAD,2024-02-14 11:54:42,14.9834689,0.0002666,70.0007,126.2366,270.4717,89.6136,0.00014893,1.685e-05,0.0,0 STARLINK-5316,1 55305U 23010AN  24045.49633018  .00001685  00000-0  14893-3 0  9991,2 55305  70.0007 126.2366 0002666 270.4717  89.6136 14.98346890 59984,6950.141,96.106,573.859,570.153,0.0
